{
  "links" : {
    "next" : "https://api.nasa.gov/neo/rest/v1/feed?start_date=1998-02-23&end_date=1998-02-23&detailed=true&api_key=t0TVs3DtDT2H8Oy2Zy8m2eVrNsAVKAexjcZXUckd",
    "prev" : "https://api.nasa.gov/neo/rest/v1/feed?start_date=1998-02-21&end_date=1998-02-21&detailed=true&api_key=t0TVs3DtDT2H8Oy2Zy8m2eVrNsAVKAexjcZXUckd",
    "self" : "https://api.nasa.gov/neo/rest/v1/feed?start_date=1998-02-22&end_date=1998-02-22&detailed=true&api_key=t0TVs3DtDT2H8Oy2Zy8m2eVrNsAVKAexjcZXUckd"
  },
  "element_count" : 3,
  "near_earth_objects" : {
    "1998-02-22" : [ {
      "links" : {
        "self" : "https://api.nasa.gov/neo/rest/v1/neo/3092170?api_key=t0TVs3DtDT2H8Oy2Zy8m2eVrNsAVKAexjcZXUckd"
      },
      "neo_reference_id" : "3092170",
      "name" : "(1998 DX11)",
      "nasa_jpl_url" : "http://ssd.jpl.nasa.gov/sbdb.cgi?sstr=3092170",
      "absolute_magnitude_h" : 27.0,
      "estimated_diameter" : {
        "kilometers" : {
          "estimated_diameter_min" : 0.0105816886,
          "estimated_diameter_max" : 0.023661375
        },
        "meters" : {
          "estimated_diameter_min" : 10.5816885933,
          "estimated_diameter_max" : 23.6613750114
        },
        "miles" : {
          "estimated_diameter_min" : 0.0065751544,
          "estimated_diameter_max" : 0.0147024923
        },
        "feet" : {
          "estimated_diameter_min" : 34.7168272045,
          "estimated_diameter_max" : 77.6291855923
        }
      },
      "is_potentially_hazardous_asteroid" : false,
      "close_approach_data" : [ {
        "close_approach_date" : "1998-02-22",
        "epoch_date_close_approach" : 888134400000,
        "relative_velocity" : {
          "kilometers_per_second" : "9.0509437584",
          "kilometers_per_hour" : "32583.3975300707",
          "miles_per_hour" : "20246.0560930598"
        },
        "miss_distance" : {
          "astronomical" : "0.0121961839",
          "lunar" : "4.7443156242",
          "kilometers" : "1824523.25",
          "miles" : "1133706.125"
        },
        "orbiting_body" : "Earth"
      } ],
      "orbital_data" : {
        "orbit_id" : "13",
        "orbit_determination_date" : "2017-04-06 09:17:54",
        "orbit_uncertainty" : "8",
        "minimum_orbit_intersection" : ".0109902",
        "jupiter_tisserand_invariant" : "3.183",
        "epoch_osculation" : "2450869.5",
        "eccentricity" : ".6045912153686241",
        "semi_major_axis" : "2.492863065461788",
        "inclination" : "6.524313232494579",
        "ascending_node_longitude" : "335.0050772016452",
        "orbital_period" : "1437.626473218831",
        "perihelion_distance" : ".9856999549666915",
        "perihelion_argument" : "162.186217152487",
        "aphelion_distance" : "4.000026175956884",
        "perihelion_time" : "2450854.056593533752",
        "mean_anomaly" : "3.867225897281465",
        "mean_motion" : ".2504127509518963",
        "equinox" : "J2000"
      }
    }, {
      "links" : {
        "self" : "https://api.nasa.gov/neo/rest/v1/neo/2005590?api_key=t0TVs3DtDT2H8Oy2Zy8m2eVrNsAVKAexjcZXUckd"
      },
      "neo_reference_id" : "2005590",
      "name" : "5590 (1990 VA)",
      "nasa_jpl_url" : "http://ssd.jpl.nasa.gov/sbdb.cgi?sstr=2005590",
      "absolute_magnitude_h" : 19.7,
      "estimated_diameter" : {
        "kilometers" : {
          "estimated_diameter_min" : 0.3051792326,
          "estimated_diameter_max" : 0.6824015094
        },
        "meters" : {
          "estimated_diameter_min" : 305.1792325939,
          "estimated_diameter_max" : 682.4015094011
        },
        "miles" : {
          "estimated_diameter_min" : 0.1896295249,
          "estimated_diameter_max" : 0.4240245083
        },
        "feet" : {
          "estimated_diameter_min" : 1001.2442334633,
          "estimated_diameter_max" : 2238.8501681036
        }
      },
      "is_potentially_hazardous_asteroid" : false,
      "close_approach_data" : [ {
        "close_approach_date" : "1998-02-22",
        "epoch_date_close_approach" : 888134400000,
        "relative_velocity" : {
          "kilometers_per_second" : "13.0842564425",
          "kilometers_per_hour" : "47103.3231929964",
          "miles_per_hour" : "29268.173236226"
        },
        "miss_distance" : {
          "astronomical" : "0.2382619764",
          "lunar" : "92.6839141846",
          "kilometers" : "35643484",
          "miles" : "22147836"
        },
        "orbiting_body" : "Earth"
      } ],
      "orbital_data" : {
        "orbit_id" : "16",
        "orbit_determination_date" : "2017-04-06 09:30:25",
        "orbit_uncertainty" : "2",
        "minimum_orbit_intersection" : ".12141",
        "jupiter_tisserand_invariant" : "6.090",
        "epoch_osculation" : "2458000.5",
        "eccentricity" : ".2794914173763929",
        "semi_major_axis" : ".98562347482788",
        "inclination" : "14.18632649816211",
        "ascending_node_longitude" : "216.3029122739428",
        "orbital_period" : "357.4085888869291",
        "perihelion_distance" : ".7101501728487903",
        "perihelion_argument" : "34.47077062119525",
        "aphelion_distance" : "1.26109677680697",
        "perihelion_time" : "2458072.834124393210",
        "mean_anomaly" : "287.1414129619765",
        "mean_motion" : "1.007250556348243",
        "equinox" : "J2000"
      }
    }, {
      "links" : {
        "self" : "https://api.nasa.gov/neo/rest/v1/neo/3508131?api_key=t0TVs3DtDT2H8Oy2Zy8m2eVrNsAVKAexjcZXUckd"
      },
      "neo_reference_id" : "3508131",
      "name" : "(2010 CB55)",
      "nasa_jpl_url" : "http://ssd.jpl.nasa.gov/sbdb.cgi?sstr=3508131",
      "absolute_magnitude_h" : 22.7,
      "estimated_diameter" : {
        "kilometers" : {
          "estimated_diameter_min" : 0.0766575574,
          "estimated_diameter_max" : 0.1714115092
        },
        "meters" : {
          "estimated_diameter_min" : 76.6575573531,
          "estimated_diameter_max" : 171.4115092306
        },
        "miles" : {
          "estimated_diameter_min" : 0.0476327831,
          "estimated_diameter_max" : 0.1065101409
        },
        "feet" : {
          "estimated_diameter_min" : 251.5011804664,
          "estimated_diameter_max" : 562.3737359442
        }
      },
      "is_potentially_hazardous_asteroid" : false,
      "close_approach_data" : [ {
        "close_approach_date" : "1998-02-22",
        "epoch_date_close_approach" : 888134400000,
        "relative_velocity" : {
          "kilometers_per_second" : "17.0932309541",
          "kilometers_per_hour" : "61535.6314346027",
          "miles_per_hour" : "38235.8483211285"
        },
        "miss_distance" : {
          "astronomical" : "0.304924684",
          "lunar" : "118.6157073975",
          "kilometers" : "45616084",
          "miles" : "28344522"
        },
        "orbiting_body" : "Earth"
      } ],
      "orbital_data" : {
        "orbit_id" : "22",
        "orbit_determination_date" : "2017-04-06 08:58:23",
        "orbit_uncertainty" : "0",
        "minimum_orbit_intersection" : ".0440685",
        "jupiter_tisserand_invariant" : "5.422",
        "epoch_osculation" : "2458000.5",
        "eccentricity" : ".1480468163448711",
        "semi_major_axis" : "1.133197833343387",
        "inclination" : "25.92016783109386",
        "ascending_node_longitude" : "144.6288523073568",
        "orbital_period" : "440.6127194948093",
        "perihelion_distance" : ".965431501827993",
        "perihelion_argument" : "108.4373716680622",
        "aphelion_distance" : "1.300964164858782",
        "perihelion_time" : "2457999.800190236255",
        "mean_anomaly" : ".5717754023010517",
        "mean_motion" : ".8170440481445089",
        "equinox" : "J2000"
      }
    } ]
  }
}